[{"OBJECT_NAME":"ONEWEB-0572","OBJECT_ID":"2023-004M","EPOCH":"2025-11-29T17:33:02.038176","MEAN_MOTION":13.17647969,"ECCENTRICITY":0.0001651,"INCLINATION":87.9131,"RA_OF_ASC_NODE":45.5302,"ARG_OF_PERICENTER":95.9,"MEAN_ANOMALY":264.2319,"EPHEMERIS_TYPE":0,"CLASSIFICATION_TYPE":"U","NORAD_CAT_ID":55151,"ELEMENT_SET_NO":999,"REV_AT_EPOCH":14121,"BSTAR":-0.00024079,"MEAN_MOTION_DOT":-8.1e-7,"MEAN_MOTION_DDOT":0},{"OBJECT_NAME":"ONEWEB-0573","OBJECT_ID":"2023-004N","EPOCH":"2025-11-29T15:14:24.603072","MEAN_MOTION":13.18684383,"ECCENTRICITY":0.0001339,"INCLINATION":87.9174,"RA_OF_ASC_NODE":15.1277,"ARG_OF_PERICENTER":71.1017,"MEAN_ANOMALY":289.026,"EPHEMERIS_TYPE":0,"CLASSIFICATION_TYPE":"U","NORAD_CAT_ID":55152,"ELEMENT_SET_NO":999,"REV_AT_EPOCH":14339,"BSTAR":-1.4563e-5,"MEAN_MOTION_DOT":7.0e-8,"MEAN_MOTION_DDOT":0},{"OBJECT_NAME":"ONEWEB-0588","OBJECT_ID":"2023-004P","EPOCH":"2025-11-29T15:04:55.317792","MEAN_MOTION":13.18684506,"ECCENTRICITY":0.0001368,"INCLINATION":87.9184,"RA_OF_ASC_NODE":15.1223,"ARG_OF_PERICENTER":90.935,"MEAN_ANOMALY":269.1939,"EPHEMERIS_TYPE":0,"CLASSIFICATION_TYPE":"U","NORAD_CAT_ID":55153,"ELEMENT_SET_NO":999,"REV_AT_EPOCH":14339,"BSTAR":0.00018737,"MEAN_MOTION_DOT":8.7e-7,"MEAN_MOTION_DDOT":0},{"OBJECT_NAME":"ONEWEB-0598","OBJECT_ID":"2023-004Q","EPOCH":"2025-11-29T19:07:23.056032","MEAN_MOTION":13.11414827,"ECCENTRICITY":0.0001852,"INCLINATION":87.8864,"RA_OF_ASC_NODE":60.7823,"ARG_OF_PERICENTER":84.1673,"MEAN_ANOMALY":275.9666,"EPHEMERIS_TYPE":0,"CLASSIFICATION_TYPE":"U","NORAD_CAT_ID":55154,"ELEMENT_SET_NO":999,"REV_AT_EPOCH":13976,"BSTAR":-0.00052071,"MEAN_MOTION_DOT":-1.72e-6,"MEAN_MOTION_DDOT":0},{"OBJECT_NAME":"ONEWEB-0599","OBJECT_ID":"2023-004R","EPOCH":"2025-11-29T05:41:02.918976","MEAN_MOTION":13.17648024,"ECCENTRICITY":0.00019265,"INCLINATION":87.9127,"RA_OF_ASC_NODE":45.6307,"ARG_OF_PERICENTER":97.1806,"MEAN_ANOMALY":262.9545,"EPHEMERIS_TYPE":0,"CLASSIFICATION_TYPE":"U","NORAD_CAT_ID":55155,"ELEMENT_SET_NO":999,"REV_AT_EPOCH":14115,"BSTAR":4.5860672e-5,"MEAN_MOTION_DOT":3.1e-7,"MEAN_MOTION_DDOT":0},{"OBJECT_NAME":"ONEWEB-0614","OBJECT_ID":"2023-004S","EPOCH":"2025-11-29T19:00:04.252032","MEAN_MOTION":13.11414847,"ECCENTRICITY":0.0001432,"INCLINATION":87.8862,"RA_OF_ASC_NODE":60.7927,"ARG_OF_PERICENTER":113.0408,"MEAN_ANOMALY":247.0871,"EPHEMERIS_TYPE":0,"CLASSIFICATION_TYPE":"U","NORAD_CAT_ID":55156,"ELEMENT_SET_NO":999,"REV_AT_EPOCH":13970,"BSTAR":0.00027995,"MEAN_MOTION_DOT":1.12e-6,"MEAN_MOTION_DDOT":0},{"OBJECT_NAME":"ONEWEB-0616","OBJECT_ID":"2023-004T","EPOCH":"2025-11-29T17:37:53.391072","MEAN_MOTION":13.17647788,"ECCENTRICITY":0.0002781,"INCLINATION":87.9134,"RA_OF_ASC_NODE":45.5226,"ARG_OF_PERICENTER":102.0374,"MEAN_ANOMALY":258.1069,"EPHEMERIS_TYPE":0,"CLASSIFICATION_TYPE":"U","NORAD_CAT_ID":55157,"ELEMENT_SET_NO":999,"REV_AT_EPOCH":14143,"BSTAR":-0.0001498,"MEAN_MOTION_DOT":-4.5e-7,"MEAN_MOTION_DDOT":0},{"OBJECT_NAME":"ONEWEB-0617","OBJECT_ID":"2023-004U","EPOCH":"2025-11-29T15:03:14.691168","MEAN_MOTION":13.11417178,"ECCENTRICITY":0.0001352,"INCLINATION":87.8863,"RA_OF_ASC_NODE":60.8043,"ARG_OF_PERICENTER":103.1651,"MEAN_ANOMALY":256.9627,"EPHEMERIS_TYPE":0,"CLASSIFICATION_TYPE":"U","NORAD_CAT_ID":55158,"ELEMENT_SET_NO":999,"REV_AT_EPOCH":13970,"BSTAR":0.001737,"MEAN_MOTION_DOT":6.28e-6,"MEAN_MOTION_DDOT":0},{"OBJECT_NAME":"ONEWEB-0618","OBJECT_ID":"2023-004V","EPOCH":"2025-11-29T20:15:00.438912","MEAN_MOTION":15.10347576,"ECCENTRICITY":0.0011756,"INCLINATION":86.9079,"RA_OF_ASC_NODE":258.4514,"ARG_OF_PERICENTER":326.3698,"MEAN_ANOMALY":33.6793,"EPHEMERIS_TYPE":0,"CLASSIFICATION_TYPE":"U","NORAD_CAT_ID":55159,"ELEMENT_SET_NO":999,"REV_AT_EPOCH":15214,"BSTAR":0.00052927,"MEAN_MOTION_DOT":8.724e-5,"MEAN_MOTION_DDOT":0},{"OBJECT_NAME":"ONEWEB-0619","OBJECT_ID":"2023-004W","EPOCH":"2025-11-29T05:38:37.371264","MEAN_MOTION":13.17647962,"ECCENTRICITY":0.00019117,"INCLINATION":87.9131,"RA_OF_ASC_NODE":45.5957,"ARG_OF_PERICENTER":115.8964,"MEAN_ANOMALY":244.2365,"EPHEMERIS_TYPE":0,"CLASSIFICATION_TYPE":"U","NORAD_CAT_ID":55160,"ELEMENT_SET_NO":999,"REV_AT_EPOCH":14126,"BSTAR":0.00016934367,"MEAN_MOTION_DOT":7.9e-7,"MEAN_MOTION_DDOT":0},{"OBJECT_NAME":"ONEWEB-0620","OBJECT_ID":"2023-004X","EPOCH":"2025-11-29T13:06:03.422880","MEAN_MOTION":13.11417961,"ECCENTRICITY":0.0001619,"INCLINATION":87.8858,"RA_OF_ASC_NODE":60.8401,"ARG_OF_PERICENTER":96.4635,"MEAN_ANOMALY":263.6677,"EPHEMERIS_TYPE":0,"CLASSIFICATION_TYPE":"U","NORAD_CAT_ID":55161,"ELEMENT_SET_NO":999,"REV_AT_EPOCH":13966,"BSTAR":0.0015472,"MEAN_MOTION_DOT":5.61e-6,"MEAN_MOTION_DDOT":0},{"OBJECT_NAME":"ONEWEB-0621","OBJECT_ID":"2023-004Y","EPOCH":"2025-11-29T19:14:42.114048","MEAN_MOTION":13.11416088,"ECCENTRICITY":0.0001639,"INCLINATION":87.8873,"RA_OF_ASC_NODE":60.7588,"ARG_OF_PERICENTER":111.6828,"MEAN_ANOMALY":248.4475,"EPHEMERIS_TYPE":0,"CLASSIFICATION_TYPE":"U","NORAD_CAT_ID":55162,"ELEMENT_SET_NO":999,"REV_AT_EPOCH":13967,"BSTAR":-0.00093622,"MEAN_MOTION_DOT":-3.19e-6,"MEAN_MOTION_DDOT":0},{"OBJECT_NAME":"ONEWEB-0622","OBJECT_ID":"2023-004Z","EPOCH":"2025-11-29T19:22:01.291296","MEAN_MOTION":13.11413543,"ECCENTRICITY":9.28e-5,"INCLINATION":87.8865,"RA_OF_ASC_NODE":60.7679,"ARG_OF_PERICENTER":114.5958,"MEAN_ANOMALY":245.5267,"EPHEMERIS_TYPE":0,"CLASSIFICATION_TYPE":"U","NORAD_CAT_ID":55163,"ELEMENT_SET_NO":999,"REV_AT_EPOCH":13966,"BSTAR":-0.0013786,"MEAN_MOTION_DOT":-4.76e-6,"MEAN_MOTION_DDOT":0},{"OBJECT_NAME":"ONEWEB-0623","OBJECT_ID":"2023-004AA","EPOCH":"2025-11-29T16:27:26.208864","MEAN_MOTION":13.1765054,"ECCENTRICITY":0.000137,"INCLINATION":87.912,"RA_OF_ASC_NODE":45.5568,"ARG_OF_PERICENTER":127.0011,"MEAN_ANOMALY":233.1246,"EPHEMERIS_TYPE":0,"CLASSIFICATION_TYPE":"U","NORAD_CAT_ID":55164,"ELEMENT_SET_NO":999,"REV_AT_EPOCH":14131,"BSTAR":-0.00013336,"MEAN_MOTION_DOT":-3.9e-7,"MEAN_MOTION_DDOT":0},{"OBJECT_NAME":"ONEWEB-0624","OBJECT_ID":"2023-004AB","EPOCH":"2025-11-29T16:18:01.437984","MEAN_MOTION":13.12920368,"ECCENTRICITY":0.0001595,"INCLINATION":87.8947,"RA_OF_ASC_NODE":30.26,"ARG_OF_PERICENTER":107.7443,"MEAN_ANOMALY":252.386,"EPHEMERIS_TYPE":0,"CLASSIFICATION_TYPE":"U","NORAD_CAT_ID":55165,"ELEMENT_SET_NO":999,"REV_AT_EPOCH":14189,"BSTAR":0.00048821,"MEAN_MOTION_DOT":1.9e-6,"MEAN_MOTION_DDOT":0},{"OBJECT_NAME":"ONEWEB-0625","OBJECT_ID":"2023-004AC","EPOCH":"2025-11-29T18:02:11.627808","MEAN_MOTION":13.17650904,"ECCENTRICITY":0.0001936,"INCLINATION":87.9122,"RA_OF_ASC_NODE":45.5388,"ARG_OF_PERICENTER":102.3457,"MEAN_ANOMALY":257.7891,"EPHEMERIS_TYPE":0,"CLASSIFICATION_TYPE":"U","NORAD_CAT_ID":55166,"ELEMENT_SET_NO":999,"REV_AT_EPOCH":14131,"BSTAR":-1.2368e-5,"MEAN_MOTION_DOT":8.0e-8,"MEAN_MOTION_DDOT":0},{"OBJECT_NAME":"ONEWEB-0626","OBJECT_ID":"2023-004AD","EPOCH":"2025-11-29T17:47:36.908160","MEAN_MOTION":13.17647814,"ECCENTRICITY":0.0001782,"INCLINATION":87.9126,"RA_OF_ASC_NODE":45.5402,"ARG_OF_PERICENTER":86.9745,"MEAN_ANOMALY":273.1591,"EPHEMERIS_TYPE":0,"CLASSIFICATION_TYPE":"U","NORAD_CAT_ID":55167,"ELEMENT_SET_NO":999,"REV_AT_EPOCH":14131,"BSTAR":-0.0001078,"MEAN_MOTION_DOT":-2.9e-7,"MEAN_MOTION_DDOT":0}]
