ONEWEB-0572             
1 55151U 23004M   25333.73127359 -.00000081  00000+0 -24079-3 0  9994
2 55151  87.9131  45.5302 0001651  95.9000 264.2319 13.17647969141212
ONEWEB-0573             
1 55152U 23004N   25333.63500698  .00000007  00000+0 -14563-4 0  9990
2 55152  87.9174  15.1277 0001339  71.1017 289.0260 13.18684383143394
ONEWEB-0588             
1 55153U 23004P   25333.62841803  .00000087  00000+0  18737-3 0  9999
2 55153  87.9184  15.1223 0001368  90.9350 269.1939 13.18684506143397
ONEWEB-0598             
1 55154U 23004Q   25333.79679463 -.00000172  00000+0 -52071-3 0  9995
2 55154  87.8864  60.7823 0001852  84.1673 275.9666 13.11414827139763
ONEWEB-0599             
1 55155U 23004R   25333.23683934  .00000031  00000+0  45861-4 0  9995
2 55155  87.9127  45.6307 0001926  97.1806 262.9545 13.17648024141152
ONEWEB-0614             
1 55156U 23004S   25333.79171588  .00000112  00000+0  27995-3 0  9991
2 55156  87.8862  60.7927 0001432 113.0408 247.0871 13.11414847139704
ONEWEB-0616             
1 55157U 23004T   25333.73464573 -.00000045  00000+0 -14980-3 0  9992
2 55157  87.9134  45.5226 0002781 102.0374 258.1069 13.17647788141432
ONEWEB-0617             
1 55158U 23004U   25333.62725337  .00000628  00000+0  17370-2 0  9999
2 55158  87.8863  60.8043 0001352 103.1651 256.9627 13.11417178139706
ONEWEB-0618             
1 55159U 23004V   25333.84375508  .00008724  00000+0  52927-3 0  9998
2 55159  86.9079 258.4514 0011756 326.3698  33.6793 15.10347576152145
ONEWEB-0619             
1 55160U 23004W   25333.23515476  .00000079  00000+0  16934-3 0  9996
2 55160  87.9131  45.5957 0001911 115.8964 244.2365 13.17647962141265
ONEWEB-0620             
1 55161U 23004X   25333.54587295  .00000561  00000+0  15472-2 0  9990
2 55161  87.8858  60.8401 0001619  96.4635 263.6677 13.11417961139669
ONEWEB-0621             
1 55162U 23004Y   25333.80187632 -.00000319  00000+0 -93622-3 0  9998
2 55162  87.8873  60.7588 0001639 111.6828 248.4475 13.11416088139675
ONEWEB-0622             
1 55163U 23004Z   25333.80695939 -.00000476  00000+0 -13786-2 0  9999
2 55163  87.8865  60.7679 0000928 114.5958 245.5267 13.11413543139663
ONEWEB-0623             
1 55164U 23004AA  25333.68572001 -.00000039  00000+0 -13336-3 0  9997
2 55164  87.9120  45.5568 0001370 127.0011 233.1246 13.17650540141319
ONEWEB-0624             
1 55165U 23004AB  25333.67918331  .00000190  00000+0  48821-3 0  9990
2 55165  87.8947  30.2600 0001595 107.7443 252.3860 13.12920368141898
ONEWEB-0625             
1 55166U 23004AC  25333.75152347  .00000008  00000+0 -12368-4 0  9994
2 55166  87.9122  45.5388 0001936 102.3457 257.7891 13.17650904141313
ONEWEB-0626             
1 55167U 23004AD  25333.74139940 -.00000029  00000+0 -10780-3 0  9997
2 55167  87.9126  45.5402 0001782  86.9745 273.1591 13.17647814141316
